ATLAS 5 CENTAUR DEB     
1 44002U 14055BH  24125.45821067 -.00000101  00000+0  00000+0 0  9993
2 44002  20.0614 224.8649 4808060  23.6431 352.5188  1.83902451 38146
